{
  "type": "FeatureCollection",
  "features": [
    {
      "type": "Feature",
      "properties": {
        "norad_id": 66422,
        "name": "STARLINK-35617",
        "group": "last-30-days",
        "lat": 13.718419161598943,
        "lon": -127.87488146900161,
        "alt_km": 441.5417642483726,
        "timestamp": "2025-12-09T09:46:46.420730+00:00",
        "meta_object_name": "STARLINK-35617",
        "meta_object_id": "2025-259A",
        "meta_epoch": "2025-12-08T12:51:52.412256",
        "meta_mean_motion": 15.40691452,
        "meta_eccentricity": 0.00012248,
        "meta_inclination": 43.0031,
        "meta_ra_of_asc_node": 72.3335,
        "meta_arg_of_pericenter": 249.5748,
        "meta_mean_anomaly": 110.4978,
        "meta_ephemeris_type": 0,
        "meta_classification_type": "U",
        "meta_norad_cat_id": 66422,
        "meta_element_set_no": 999,
        "meta_rev_at_epoch": 551,
        "meta_bstar": 0.0020061466,
        "meta_mean_motion_dot": 0.00084406,
        "meta_mean_motion_ddot": 0,
        "tle_line1": "1 66422U 25259A   25342.53602329  .00084406  00000+0  20061-2 0  9991",
        "tle_line2": "2 66422  43.0031  72.3335 0001224 249.5748 110.4978 15.40691452  5512"
      },
      "geometry": {
        "type": "Point",
        "coordinates": [
          -127.87488146900161,
          13.718419161598943
        ]
      }
    },
    {
      "type": "Feature",
      "properties": {
        "norad_id": 66423,
        "name": "STARLINK-35618",
        "group": "last-30-days",
        "lat": 5.54020647494609,
        "lon": -118.69344082854,
        "alt_km": 443.09972194974307,
        "timestamp": "2025-12-09T09:46:46.420741+00:00",
        "meta_object_name": "STARLINK-35618",
        "meta_object_id": "2025-259B",
        "meta_epoch": "2025-12-09T00:00:02.000160",
        "meta_mean_motion": 15.4067628,
        "meta_eccentricity": 0.0001559,
        "meta_inclination": 43.0007,
        "meta_ra_of_asc_node": 69.6297,
        "meta_arg_of_pericenter": 260.4862,
        "meta_mean_anomaly": 168.6634,
        "meta_ephemeris_type": 0,
        "meta_classification_type": "U",
        "meta_norad_cat_id": 66423,
        "meta_element_set_no": 999,
        "meta_rev_at_epoch": 567,
        "meta_bstar": 0.00061594115,
        "meta_mean_motion_dot": 0.00025491,
        "meta_mean_motion_ddot": 0,
        "tle_line1": "1 66423U 25259B   25343.00002315  .00025491  00000+0  61594-3 0  9990",
        "tle_line2": "2 66423  43.0007  69.6297 0001559 260.4862 168.6634 15.40676280  5675"
      },
      "geometry": {
        "type": "Point",
        "coordinates": [
          -118.69344082854,
          5.54020647494609
        ]
      }
    },
    {
      "type": "Feature",
      "properties": {
        "norad_id": 66424,
        "name": "STARLINK-35588",
        "group": "last-30-days",
        "lat": -2.934136930850509,
        "lon": -109.59558218959758,
        "alt_km": 444.3455805855374,
        "timestamp": "2025-12-09T09:46:46.420752+00:00",
        "meta_object_name": "STARLINK-35588",
        "meta_object_id": "2025-259C",
        "meta_epoch": "2025-12-09T00:00:02.000160",
        "meta_mean_motion": 15.40656922,
        "meta_eccentricity": 0.00016443,
        "meta_inclination": 43.0009,
        "meta_ra_of_asc_node": 69.5999,
        "meta_arg_of_pericenter": 277.1195,
        "meta_mean_anomaly": 164.4996,
        "meta_ephemeris_type": 0,
        "meta_classification_type": "U",
        "meta_norad_cat_id": 66424,
        "meta_element_set_no": 999,
        "meta_rev_at_epoch": 567,
        "meta_bstar": 0.0008193677,
        "meta_mean_motion_dot": 0.00034027,
        "meta_mean_motion_ddot": 0,
        "tle_line1": "1 66424U 25259C   25343.00002315  .00034027  00000+0  81937-3 0  9999",
        "tle_line2": "2 66424  43.0009  69.5999 0001644 277.1195 164.4996 15.40656922  5671"
      },
      "geometry": {
        "type": "Point",
        "coordinates": [
          -109.59558218959758,
          -2.934136930850509
        ]
      }
    },
    {
      "type": "Feature",
      "properties": {
        "norad_id": 66425,
        "name": "STARLINK-35555",
        "group": "last-30-days",
        "lat": -11.347361892041548,
        "lon": -100.34462179977294,
        "alt_km": 444.9793836826266,
        "timestamp": "2025-12-09T09:46:46.420762+00:00",
        "meta_object_name": "STARLINK-35555",
        "meta_object_id": "2025-259D",
        "meta_epoch": "2025-12-09T00:00:02.000160",
        "meta_mean_motion": 15.40762168,
        "meta_eccentricity": 0.00013336,
        "meta_inclination": 43.0009,
        "meta_ra_of_asc_node": 69.5681,
        "meta_arg_of_pericenter": 276.2527,
        "meta_mean_anomaly": 177.7303,
        "meta_ephemeris_type": 0,
        "meta_classification_type": "U",
        "meta_norad_cat_id": 66425,
        "meta_element_set_no": 999,
        "meta_rev_at_epoch": 567,
        "meta_bstar": -0.0012463131,
        "meta_mean_motion_dot": -0.00052117,
        "meta_mean_motion_ddot": 0,
        "tle_line1": "1 66425U 25259D   25343.00002315 -.00052117  00000+0 -12463-2 0  9999",
        "tle_line2": "2 66425  43.0009  69.5681 0001333 276.2527 177.7303 15.40762168  5673"
      },
      "geometry": {
        "type": "Point",
        "coordinates": [
          -100.34462179977294,
          -11.347361892041548
        ]
      }
    },
    {
      "type": "Feature",
      "properties": {
        "norad_id": 66426,
        "name": "STARLINK-35589",
        "group": "last-30-days",
        "lat": -19.415870706276287,
        "lon": -90.58560796280943,
        "alt_km": 445.28102465028405,
        "timestamp": "2025-12-09T09:46:46.420773+00:00",
        "meta_object_name": "STARLINK-35589",
        "meta_object_id": "2025-259E",
        "meta_epoch": "2025-12-09T00:00:02.000160",
        "meta_mean_motion": 15.4066424,
        "meta_eccentricity": 0.00016055,
        "meta_inclination": 43.0009,
        "meta_ra_of_asc_node": 69.5387,
        "meta_arg_of_pericenter": 255.6675,
        "meta_mean_anomaly": 210.8273,
        "meta_ephemeris_type": 0,
        "meta_classification_type": "U",
        "meta_norad_cat_id": 66426,
        "meta_element_set_no": 999,
        "meta_rev_at_epoch": 567,
        "meta_bstar": 0.00058505028,
        "meta_mean_motion_dot": 0.00024184,
        "meta_mean_motion_ddot": 0,
        "tle_line1": "1 66426U 25259E   25343.00002315  .00024184  00000+0  58505-3 0  9999",
        "tle_line2": "2 66426  43.0009  69.5387 0001605 255.6675 210.8273 15.40664240  5671"
      },
      "geometry": {
        "type": "Point",
        "coordinates": [
          -90.58560796280943,
          -19.415870706276287
        ]
      }
    },
    {
      "type": "Feature",
      "properties": {
        "norad_id": 66427,
        "name": "STARLINK-35611",
        "group": "last-30-days",
        "lat": -26.922931485612835,
        "lon": -79.81980564794031,
        "alt_km": 445.9191411513739,
        "timestamp": "2025-12-09T09:46:46.420784+00:00",
        "meta_object_name": "STARLINK-35611",
        "meta_object_id": "2025-259F",
        "meta_epoch": "2025-12-09T00:00:02.000160",
        "meta_mean_motion": 15.40672393,
        "meta_eccentricity": 0.00014904,
        "meta_inclination": 43.0011,
        "meta_ra_of_asc_node": 69.5075,
        "meta_arg_of_pericenter": 270.1884,
        "meta_mean_anomaly": 208.7355,
        "meta_ephemeris_type": 0,
        "meta_classification_type": "U",
        "meta_norad_cat_id": 66427,
        "meta_element_set_no": 999,
        "meta_rev_at_epoch": 567,
        "meta_bstar": 0.00071720673,
        "meta_mean_motion_dot": 0.00029745,
        "meta_mean_motion_ddot": 0,
        "tle_line1": "1 66427U 25259F   25343.00002315  .00029745  00000+0  71721-3 0  9993",
        "tle_line2": "2 66427  43.0011  69.5075 0001490 270.1884 208.7355 15.40672393  5670"
      },
      "geometry": {
        "type": "Point",
        "coordinates": [
          -79.81980564794031,
          -26.922931485612835
        ]
      }
    },
    {
      "type": "Feature",
      "properties": {
        "norad_id": 66428,
        "name": "STARLINK-35610",
        "group": "last-30-days",
        "lat": -33.49066222806449,
        "lon": -67.63590262329937,
        "alt_km": 446.15140313424854,
        "timestamp": "2025-12-09T09:46:46.420794+00:00",
        "meta_object_name": "STARLINK-35610",
        "meta_object_id": "2025-259G",
        "meta_epoch": "2025-12-09T00:00:02.000160",
        "meta_mean_motion": 15.40665514,
        "meta_eccentricity": 0.0001795,
        "meta_inclination": 43.0011,
        "meta_ra_of_asc_node": 69.4768,
        "meta_arg_of_pericenter": 276.7843,
        "meta_mean_anomaly": 214.587,
        "meta_ephemeris_type": 0,
        "meta_classification_type": "U",
        "meta_norad_cat_id": 66428,
        "meta_element_set_no": 999,
        "meta_rev_at_epoch": 567,
        "meta_bstar": 0.00056100017,
        "meta_mean_motion_dot": 0.00023175,
        "meta_mean_motion_ddot": 0,
        "tle_line1": "1 66428U 25259G   25343.00002315  .00023175  00000+0  56100-3 0  9999",
        "tle_line2": "2 66428  43.0011  69.4768 0001795 276.7843 214.5870 15.40665514  5678"
      },
      "geometry": {
        "type": "Point",
        "coordinates": [
          -67.63590262329937,
          -33.49066222806449
        ]
      }
    }
  ]
}